{
  "type": "FeatureCollection",
  "features": [
    {
      "type": "Feature",
      "properties": {
        "norad_id": 42989,
        "name": "SKYSAT-C9",
        "group": "resource",
        "lat": -80.78704506682432,
        "lon": 177.21641620972477,
        "alt_km": 470.9669990047423,
        "timestamp": "2025-12-19T10:50:00.849288+00:00",
        "meta_object_name": "SKYSAT-C9",
        "meta_object_id": "2017-068C",
        "meta_epoch": "2025-12-18T22:41:41.803008",
        "meta_mean_motion": 15.36203039,
        "meta_eccentricity": 0.0010548,
        "meta_inclination": 97.4193,
        "meta_ra_of_asc_node": 123.2487,
        "meta_arg_of_pericenter": 67.9248,
        "meta_mean_anomaly": 292.3115,
        "meta_ephemeris_type": 0,
        "meta_classification_type": "U",
        "meta_norad_cat_id": 42989,
        "meta_element_set_no": 999,
        "meta_rev_at_epoch": 45503,
        "meta_bstar": 0.00029759929,
        "meta_mean_motion_dot": 0.00010438,
        "meta_mean_motion_ddot": 0,
        "tle_line1": "1 42989U 17068C   25352.94562272  .00010438  00000+0  29760-3 0  9990",
        "tle_line2": "2 42989  97.4193 123.2487 0010548  67.9248 292.3115 15.36203039455030"
      },
      "geometry": {
        "type": "Point",
        "coordinates": [
          177.21641620972477,
          -80.78704506682432
        ]
      }
    },
    {
      "type": "Feature",
      "properties": {
        "norad_id": 42990,
        "name": "SKYSAT-C8",
        "group": "resource",
        "lat": 9.223275557878889,
        "lon": -55.3050986275045,
        "alt_km": 469.1499766283132,
        "timestamp": "2025-12-19T10:50:00.849298+00:00",
        "meta_object_name": "SKYSAT-C8",
        "meta_object_id": "2017-068D",
        "meta_epoch": "2025-12-18T19:59:35.453472",
        "meta_mean_motion": 15.33051371,
        "meta_eccentricity": 0.00011703,
        "meta_inclination": 97.4282,
        "meta_ra_of_asc_node": 122.8599,
        "meta_arg_of_pericenter": 316.3061,
        "meta_mean_anomaly": 43.8088,
        "meta_ephemeris_type": 0,
        "meta_classification_type": "U",
        "meta_norad_cat_id": 42990,
        "meta_element_set_no": 999,
        "meta_rev_at_epoch": 45464,
        "meta_bstar": 0.00030081895,
        "meta_mean_motion_dot": 9.527e-05,
        "meta_mean_motion_ddot": 0,
        "tle_line1": "1 42990U 17068D   25352.83304923  .00009527  00000+0  30082-3 0  9993",
        "tle_line2": "2 42990  97.4282 122.8599 0001170 316.3061  43.8088 15.33051371454646"
      },
      "geometry": {
        "type": "Point",
        "coordinates": [
          -55.3050986275045,
          9.223275557878889
        ]
      }
    },
    {
      "type": "Feature",
      "properties": {
        "norad_id": 42991,
        "name": "SKYSAT-C7",
        "group": "resource",
        "lat": 11.349199340834357,
        "lon": 123.01587562500897,
        "alt_km": 465.4750985518385,
        "timestamp": "2025-12-19T10:50:00.849308+00:00",
        "meta_object_name": "SKYSAT-C7",
        "meta_object_id": "2017-068E",
        "meta_epoch": "2025-12-18T22:14:48.659712",
        "meta_mean_motion": 15.32453251,
        "meta_eccentricity": 0.00072381,
        "meta_inclination": 97.429,
        "meta_ra_of_asc_node": 123.9903,
        "meta_arg_of_pericenter": 38.2093,
        "meta_mean_anomaly": 321.9661,
        "meta_ephemeris_type": 0,
        "meta_classification_type": "U",
        "meta_norad_cat_id": 42991,
        "meta_element_set_no": 999,
        "meta_rev_at_epoch": 45472,
        "meta_bstar": 0.00029204968,
        "meta_mean_motion_dot": 9.081e-05,
        "meta_mean_motion_ddot": 0,
        "tle_line1": "1 42991U 17068E   25352.92695208  .00009081  00000+0  29205-3 0  9993",
        "tle_line2": "2 42991  97.4290 123.9903 0007238  38.2093 321.9661 15.32453251454721"
      },
      "geometry": {
        "type": "Point",
        "coordinates": [
          123.01587562500897,
          11.349199340834357
        ]
      }
    },
    {
      "type": "Feature",
      "properties": {
        "norad_id": 42992,
        "name": "SKYSAT-C6",
        "group": "resource",
        "lat": 70.24745461191029,
        "lon": -33.73245817610761,
        "alt_km": 461.72737946212237,
        "timestamp": "2025-12-19T10:50:00.849318+00:00",
        "meta_object_name": "SKYSAT-C6",
        "meta_object_id": "2017-068F",
        "meta_epoch": "2025-12-18T20:15:03.221856",
        "meta_mean_motion": 15.31610998,
        "meta_eccentricity": 0.00050359,
        "meta_inclination": 97.4323,
        "meta_ra_of_asc_node": 124.3405,
        "meta_arg_of_pericenter": 66.0941,
        "meta_mean_anomaly": 294.0827,
        "meta_ephemeris_type": 0,
        "meta_classification_type": "U",
        "meta_norad_cat_id": 42992,
        "meta_element_set_no": 999,
        "meta_rev_at_epoch": 45469,
        "meta_bstar": 0.00029301506,
        "meta_mean_motion_dot": 8.87e-05,
        "meta_mean_motion_ddot": 0,
        "tle_line1": "1 42992U 17068F   25352.84378729  .00008870  00000+0  29302-3 0  9994",
        "tle_line2": "2 42992  97.4323 124.3405 0005035  66.0941 294.0827 15.31610998454697"
      },
      "geometry": {
        "type": "Point",
        "coordinates": [
          -33.73245817610761,
          70.24745461191029
        ]
      }
    },
    {
      "type": "Feature",
      "properties": {
        "norad_id": 43111,
        "name": "CARTOSAT-2F",
        "group": "resource",
        "lat": -78.65477883443289,
        "lon": 91.56642163286124,
        "alt_km": 516.6489310364632,
        "timestamp": "2025-12-19T10:50:00.849328+00:00",
        "meta_object_name": "CARTOSAT-2F",
        "meta_object_id": "2018-004A",
        "meta_epoch": "2025-12-18T22:32:42.501120",
        "meta_mean_motion": 15.19181307,
        "meta_eccentricity": 0.00014533,
        "meta_inclination": 97.4318,
        "meta_ra_of_asc_node": 50.4774,
        "meta_arg_of_pericenter": 108.2065,
        "meta_mean_anomaly": 251.9328,
        "meta_ephemeris_type": 0,
        "meta_classification_type": "U",
        "meta_norad_cat_id": 43111,
        "meta_element_set_no": 999,
        "meta_rev_at_epoch": 43996,
        "meta_bstar": 0.00022724061,
        "meta_mean_motion_dot": 4.712e-05,
        "meta_mean_motion_ddot": 0,
        "tle_line1": "1 43111U 18004A   25352.93938080  .00004712  00000+0  22724-3 0  9993",
        "tle_line2": "2 43111  97.4318  50.4774 0001453 108.2065 251.9328 15.19181307439963"
      },
      "geometry": {
        "type": "Point",
        "coordinates": [
          91.56642163286124,
          -78.65477883443289
        ]
      }
    },
    {
      "type": "Feature",
      "properties": {
        "norad_id": 43259,
        "name": "GAOFEN-1 02",
        "group": "resource",
        "lat": 81.82722169766147,
        "lon": -47.17681708812503,
        "alt_km": 633.420980199221,
        "timestamp": "2025-12-19T10:50:00.849338+00:00",
        "meta_object_name": "GAOFEN-1 02",
        "meta_object_id": "2018-031A",
        "meta_epoch": "2025-12-18T23:02:10.621824",
        "meta_mean_motion": 14.76428147,
        "meta_eccentricity": 0.00021263,
        "meta_inclination": 98.0805,
        "meta_ra_of_asc_node": 50.7518,
        "meta_arg_of_pericenter": 193.0384,
        "meta_mean_anomaly": 167.0771,
        "meta_ephemeris_type": 0,
        "meta_classification_type": "U",
        "meta_norad_cat_id": 43259,
        "meta_element_set_no": 999,
        "meta_rev_at_epoch": 41610,
        "meta_bstar": 0.00012018885,
        "meta_mean_motion_dot": 7.84e-06,
        "meta_mean_motion_ddot": 0,
        "tle_line1": "1 43259U 18031A   25352.95984516  .00000784  00000+0  12019-3 0  9994",
        "tle_line2": "2 43259  98.0805  50.7518 0002126 193.0384 167.0771 14.76428147416105"
      },
      "geometry": {
        "type": "Point",
        "coordinates": [
          -47.17681708812503,
          81.82722169766147
        ]
      }
    },
    {
      "type": "Feature",
      "properties": {
        "norad_id": 43260,
        "name": "GAOFEN-1 03",
        "group": "resource",
        "lat": -26.713727070844715,
        "lon": -132.97998820371214,
        "alt_km": 646.118214245007,
        "timestamp": "2025-12-19T10:50:00.849348+00:00",
        "meta_object_name": "GAOFEN-1 03",
        "meta_object_id": "2018-031B",
        "meta_epoch": "2025-12-18T22:30:49.216032",
        "meta_mean_motion": 14.76449246,
        "meta_eccentricity": 0.00017323,
        "meta_inclination": 98.0791,
        "meta_ra_of_asc_node": 50.6058,
        "meta_arg_of_pericenter": 290.2219,
        "meta_mean_anomaly": 69.8804,
        "meta_ephemeris_type": 0,
        "meta_classification_type": "U",
        "meta_norad_cat_id": 43260,
        "meta_element_set_no": 999,
        "meta_rev_at_epoch": 41609,
        "meta_bstar": 0.00010947653,
        "meta_mean_motion_dot": 7.1e-06,
        "meta_mean_motion_ddot": 0,
        "tle_line1": "1 43260U 18031B   25352.93806963  .00000710  00000+0  10948-3 0  9991",
        "tle_line2": "2 43260  98.0791  50.6058 0001732 290.2219  69.8804 14.76449246416095"
      },
      "geometry": {
        "type": "Point",
        "coordinates": [
          -132.97998820371214,
          -26.713727070844715
        ]
      }
    }
  ]
}